NORAD_CAT_ID,OBJECT_NAME,OBJECT_TYPE,EPOCH,MEAN_MOTION,ECCENTRICITY,INCLINATION,RA_OF_ASC_NODE,ARG_OF_PERICENTER,MEAN_ANOMALY,BSTAR,MEAN_MOTION_DOT,MEAN_MOTION_DDOT,TLE_LINE0,TLE_LINE1,TLE_LINE2,SEMIMAJOR_AXIS,PERIOD,APOGEE,PERIGEE,DECAYED
53853.0,STARLINK-4794,PAYLOAD,2022-12-10 14:00:01,15.26045139,0.0001508,53.2174,214.2088,124.3573,160.0293,-0.047749,-0.01134754,0.0,0 STARLINK-4794,1 53853U 22114AM  22344.58334491 -.01134754  00000-0 -47749-1 0  9995,2 53853  53.2174 214.2088 0001508 124.3573 160.0293 15.26045139  1303,6865.786,94.362,488.686,486.616,0.0
53853.0,STARLINK-4794,PAYLOAD,2022-12-10 16:00:00,15.25841251,0.0001343,53.2175,213.8252,123.0214,259.3996,-0.047961,-0.01132893,0.0,0 STARLINK-4794,1 53853U 22114AM  22344.66667824 -.01132893  00000-0 -47961-1 0  9991,2 53853  53.2175 213.8252 0001343 123.0214 259.3996 15.25841251 13535,6866.397,94.374,489.185,487.34,0.0
53853.0,STARLINK-4794,PAYLOAD,2022-12-11 00:00:00,15.25030112,0.00012,53.2175,212.2919,83.6252,330.3221,-0.049383,-0.01152899,0.0,0 STARLINK-4794,1 53853U 22114AM  22345.00001157 -.01152899  00000-0 -49383-1 0  9999,2 53853  53.2175 212.2919 0001200  83.6252 330.3221 15.25030112  1302,6868.831999999999,94.424,491.521,489.87300000000016,0.0
53853.0,STARLINK-4794,PAYLOAD,2022-12-11 14:00:01,15.23602457,0.0001219,53.2173,209.6081,109.4947,267.2764,-0.051257,-0.01146897,0.0,0 STARLINK-4794,1 53853U 22114AM  22345.58334491 -.01146897  00000-0 -51257-1 0  9996,2 53853  53.2173 209.6081 0001219 109.4947 267.2764 15.23602457  1303,6873.121999999999,94.513,495.825,494.149,0.0
53853.0,STARLINK-4794,PAYLOAD,2022-12-11 16:00:00,15.23400261,0.0001328,53.2176,209.2256,102.0598,12.0121,-0.051636,-0.01148319,0.0,0 STARLINK-4794,1 53853U 22114AM  22345.66667824 -.01148319  00000-0 -51636-1 0  9996,2 53853  53.2176 209.2256 0001328 102.0598  12.0121 15.23400261 13684,6873.73,94.525,496.508,494.6830000000001,0.0
53853.0,STARLINK-4794,PAYLOAD,2022-12-11 22:00:01,15.22792393,0.0001208,53.2174,208.08,83.1988,322.4724,-0.052809,-0.01152898,0.0,0 STARLINK-4794,1 53853U 22114AM  22345.91668981 -.01152898  00000-0 -52809-1 0  9999,2 53853  53.2174 208.0800 0001208  83.1988 322.4724 15.22792393  1305,6875.559,94.563,498.255,496.594,0.0
53853.0,STARLINK-4794,PAYLOAD,2022-12-12 14:00:01,15.21162555,0.0001286999999999,53.2174,205.0243,89.0538,11.3002,-0.055189,-0.01148427,0.0,0 STARLINK-4794,1 53853U 22114AM  22346.58334491 -.01148427  00000-0 -55189-1 0  9996,2 53853  53.2174 205.0243 0001287  89.0538  11.3002 15.21162555  1309,6880.47,94.664,503.22,501.449,0.0
53853.0,STARLINK-4794,PAYLOAD,2022-12-12 16:00:01,15.20959141,0.0001419,53.2176,204.6436,93.025,103.9601,-0.055511,-0.01148263,0.0,0 STARLINK-4794,1 53853U 22114AM  22346.66668981 -.01148263  00000-0 -55511-1 0  9996,2 53853  53.2176 204.6436 0001419  93.0250 103.9601 15.20959141 13831,6881.083000000001,94.677,503.925,501.972,0.0
53853.0,STARLINK-4794,PAYLOAD,2022-12-12 22:00:00,15.20350272,0.0001392,53.2173,203.5022,75.3242,50.9337,-0.056672,-0.01151223,0.0,0 STARLINK-4794,1 53853U 22114AM  22346.91667824 -.01151223  00000-0 -56672-1 0  9998,2 53853  53.2173 203.5022 0001392  75.3242  50.9337 15.20350272  1307,6882.92,94.715,505.74300000000005,503.827,0.0
53853.0,STARLINK-4794,PAYLOAD,2022-12-13 14:00:01,15.18720248,0.0001456,53.2177,200.4586,90.1852,84.9512,-0.059181,-0.01146661,0.0,0 STARLINK-4794,1 53853U 22114AM  22347.58334491 -.01146661  00000-0 -59181-1 0  9991,2 53853  53.2177 200.4586 0001456  90.1852  84.9512 15.18720248 13974,6887.844,94.817,510.712,508.706,0.0
53853.0,STARLINK-4794,PAYLOAD,2022-12-13 22:00:00,15.1790726,0.0001473,53.2173,198.9413,75.7502,122.3575,-0.060666,-0.01147928,0.0,0 STARLINK-4794,1 53853U 22114AM  22347.91667824 -.01147928  00000-0 -60666-1 0  9994,2 53853  53.2173 198.9413 0001473  75.7502 122.3575 15.17907260  1300,6890.303000000001,94.867,513.183,511.154,0.0
53853.0,STARLINK-4794,PAYLOAD,2022-12-14 14:00:01,15.16195009,0.0001501,53.2166,195.9083,95.1997,145.9582,-0.056415,-0.01012888,0.0,0 STARLINK-4794,1 53853U 22114AM  22348.58334491 -.01012888  00000-0 -56415-1 0  9992,2 53853  53.2166 195.9083 0001501  95.1997 145.9582 15.16195009  1306,6895.49,94.975,518.39,516.32,0.0
53853.0,STARLINK-4794,PAYLOAD,2022-12-14 16:00:01,15.16082427,0.0001281999999999,53.2173,195.5304,90.4744,245.8051,-0.0643659999999999,-0.0115495,0.0,0 STARLINK-4794,1 53853U 22114AM  22348.66668981 -.01154950  00000-0 -64366-1 0  9996,2 53853  53.2173 195.5304 0001282  90.4744 245.8051 15.16082427 14135,6895.831,94.982,518.58,516.812,0.0
53853.0,STARLINK-4794,PAYLOAD,2022-12-14 22:00:00,15.15416723,0.0001359,53.2169,194.3973,98.0378,163.1411,-0.0608059999999999,-0.01076616,0.0,0 STARLINK-4794,1 53853U 22114AM  22348.91667824 -.01076616  00000-0 -60806-1 0  9996,2 53853  53.2169 194.3973 0001359  98.0378 163.1411 15.15416723  1307,6897.851,95.023,520.653,518.778,0.0
53853.0,STARLINK-4794,PAYLOAD,2022-12-15 14:00:01,15.13837679,0.0001311,53.2176,191.376,96.7209,201.5795,-0.067989,-0.01145229,0.0,0 STARLINK-4794,1 53853U 22114AM  22349.58334491 -.01145229  00000-0 -67989-1 0  9997,2 53853  53.2176 191.3760 0001311  96.7209 201.5795 15.13837679  1309,6902.647,95.122,525.4159999999998,523.607,0.0
53853.0,STARLINK-4794,PAYLOAD,2022-12-15 16:00:00,15.13635634,0.0001199,53.2177,190.9997,87.9915,304.676,-0.068572,-0.01148197,0.0,0 STARLINK-4794,1 53853U 22114AM  22349.66667824 -.01148197  00000-0 -68572-1 0  9991,2 53853  53.2177 190.9997 0001199  87.9915 304.6760 15.13635634 14293,6903.261,95.135,525.953,524.298,0.0
53853.0,STARLINK-4794,PAYLOAD,2022-12-15 22:00:00,15.1302443,0.0001281999999999,53.2176,189.8709,84.921,230.483,-0.069661,-0.01146631,0.0,0 STARLINK-4794,1 53853U 22114AM  22349.91667824 -.01146631  00000-0 -69661-1 0  9990,2 53853  53.2176 189.8709 0001282  84.9210 230.4830 15.13024430  1306,6905.12,95.174,527.87,526.1,0.0
53853.0,STARLINK-4794,PAYLOAD,2022-12-16 14:00:01,15.11369217,0.0001592,53.2122,186.8589,93.6852,253.0418,-0.070259,-0.01107262,0.0,0 STARLINK-4794,1 53853U 22114AM  22350.58334491 -.01107262  00000-0 -70259-1 0  9998,2 53853  53.2122 186.8589 0001592  93.6852 253.0418 15.11369217  1309,6910.16,95.278,533.125,530.925,0.0
53853.0,STARLINK-4794,PAYLOAD,2022-12-16 16:00:00,15.112093300000002,0.0001724,53.2121,186.484,87.2072,353.1369,-0.075616,-0.01180086,0.0,0 STARLINK-4794,1 53853U 22114AM  22350.66667824 -.01180086  00000-0 -75616-1 0  9993,2 53853  53.2121 186.4840 0001724  87.2072 353.1369 15.11209330 14449,6910.648,95.288,533.7040000000002,531.321,0.0
53853.0,STARLINK-4794,PAYLOAD,2022-12-16 22:00:00,15.10563168,0.0001444,53.2119,185.3593,85.3748,275.512,-0.071837,-0.01106989,0.0,0 STARLINK-4794,1 53853U 22114AM  22350.91667824 -.01106989  00000-0 -71837-1 0  9992,2 53853  53.2119 185.3593 0001444  85.3748 275.5120 15.10563168  1312,6912.618,95.329,535.482,533.485,0.0
53853.0,STARLINK-4794,PAYLOAD,2022-12-17 06:00:00,15.09775876,0.0001224,53.2116,183.8584,86.884,287.196,-0.077619,-0.01165204,0.0,0 STARLINK-4794,1 53853U 22114AM  22351.25001157 -.01165204  00000-0 -77619-1 0  9990,2 53853  53.2116 183.8584 0001224  86.8840 287.1960 15.09775876 14535,6915.021,95.378,537.7330000000002,536.04,0.0
53853.0,STARLINK-4794,PAYLOAD,2022-12-17 14:00:01,15.08977797,9.83e-05,53.2117,182.3605,83.1293,303.2176,-0.080036,-0.01174436,0.0,0 STARLINK-4794,1 53853U 22114AM  22351.58335648 -.01174436  00000-0 -80036-1 0  9995,2 53853  53.2117 182.3605 0000983  83.1293 303.2176 15.08977797  1302,6917.459,95.429,540.004,538.644,0.0
53853.0,STARLINK-4794,PAYLOAD,2022-12-17 22:00:00,15.08062477,0.0001202,53.212,180.8663,76.6241,320.9264,-0.0673909999999999,-0.00966965,0.0,0 STARLINK-4794,1 53853U 22114AM  22351.91667824 -.00966965  00000-0 -67391-1 0  9990,2 53853  53.2120 180.8663 0001202  76.6241 320.9264 15.08062477  1302,6920.2580000000025,95.487,542.955,541.2909999999998,0.0
53853.0,STARLINK-4794,PAYLOAD,2022-12-18 08:00:01,15.07187797,0.0001071,53.2131,178.9974,87.1968,53.0287,0.0010016,0.00014988,0.0,0 STARLINK-4794,1 53853U 22114AM  22352.33334491  .00014988  00000-0  10016-2 0  9998,2 53853  53.2131 178.9974 0001071  87.1968  53.0287 15.07187797 14691,6922.935,95.542,545.5419999999998,544.059,0.0
53853.0,STARLINK-4794,PAYLOAD,2022-12-18 14:00:01,15.07209515,0.0001175,53.2142,177.878,88.848,328.5843,-0.00075463,-0.00011753,0.0,0 STARLINK-4794,1 53853U 22114AM  22352.58334491 -.00011753  00000-0 -75463-3 0  9992,2 53853  53.2142 177.8780 0001175  88.8480 328.5843 15.07209515  1303,6922.869000000002,95.541,545.547,543.92,0.0
53853.0,STARLINK-4794,PAYLOAD,2022-12-18 22:00:00,15.07181907,0.0001206,53.2149,176.387,76.3213,350.7486,0.0019906,0.00030128,0.0,0 STARLINK-4794,1 53853U 22114AM  22352.91667824  .00030128  00000-0  19906-2 0  9992,2 53853  53.2149 176.3870 0001206  76.3213 350.7486 15.07181907  1309,6922.953,95.543,545.653,543.9830000000002,0.0
53853.0,STARLINK-4794,PAYLOAD,2022-12-19 08:00:01,15.07183695,0.0001109,53.2152,174.5193,85.0632,84.0292,0.0020714,0.00031369,0.0,0 STARLINK-4794,1 53853U 22114AM  22353.33334491  .00031369  00000-0  20714-2 0  9997,2 53853  53.2152 174.5193 0001109  85.0632  84.0292 15.07183695 14846,6922.948,95.542,545.58,544.045,0.0
53853.0,STARLINK-4794,PAYLOAD,2022-12-19 10:00:00,15.07182281,0.0001154,53.2151,174.1459,86.7629,174.735,0.0027026,0.00041069,0.0,0 STARLINK-4794,1 53853U 22114AM  22353.41667824  .00041069  00000-0  27026-2 0  9996,2 53853  53.2151 174.1459 0001154  86.7629 174.7350 15.07182281  1309,6922.9519999999975,95.543,545.616,544.018,0.0
53853.0,STARLINK-4794,PAYLOAD,2022-12-19 22:00:00,15.07182643,0.0001202,53.2161,171.9106,73.7011,22.2424,0.0026777,0.00040687,0.0,0 STARLINK-4794,1 53853U 22114AM  22353.91667824  .00040687  00000-0  26777-2 0  9998,2 53853  53.2161 171.9106 0001202  73.7011  22.2424 15.07182643  1300,6922.951,95.543,545.648,543.984,0.0
